[{"OBJECT_NAME":"STARLINK-36048","OBJECT_ID":"2025-270R","EPOCH":"2026-03-09T00:03:38.372544","MEAN_MOTION":15.27580914,"ECCENTRICITY":6.277e-5,"INCLINATION":42.9969,"RA_OF_ASC_NODE":59.8093,"ARG_OF_PERICENTER":273.9101,"MEAN_ANOMALY":86.1679,"EPHEMERIS_TYPE":0,"CLASSIFICATION_TYPE":"U","NORAD_CAT_ID":66603,"ELEMENT_SET_NO":999,"REV_AT_EPOCH":1750,"BSTAR":0.00094906375,"MEAN_MOTION_DOT":0.00025947,"MEAN_MOTION_DDOT":0},{"OBJECT_NAME":"SL-3 R\/B","OBJECT_ID":"1983-003B","EPOCH":"2026-03-09T21:31:00.897888","MEAN_MOTION":15.34640469,"ECCENTRICITY":0.00285789,"INCLINATION":81.155,"RA_OF_ASC_NODE":261.9078,"ARG_OF_PERICENTER":155.4571,"MEAN_ANOMALY":204.8036,"EPHEMERIS_TYPE":0,"CLASSIFICATION_TYPE":"U","NORAD_CAT_ID":13771,"ELEMENT_SET_NO":999,"REV_AT_EPOCH":35642,"BSTAR":0.00033440366,"MEAN_MOTION_DOT":0.00011405,"MEAN_MOTION_DDOT":0}]
